COSMOS 2251 DEB         
1 37486U 93036BLP 26041.19658115  .00004146  00000+0  16967-2 0  9993
2 37486  73.6912   7.0180 0230562 227.0187 148.8439 14.14168757642103
COSMOS 2251 DEB         
1 37487U 93036BLQ 26052.42006610  .00029930  00000+0  34218-2 0  9996
2 37487  73.9028  51.0017 0030834 240.4466 119.3638 14.85549634822932
COSMOS 2251 DEB         
1 37491U 93036BLU 26061.86189358  .00001135  00000+0  84158-3 0  9996
2 37491  73.9060 139.7523 0311412 117.9251 245.3769 13.75576056568481
COSMOS 2251 DEB         
1 37496U 93036BLZ 26056.99080304  .00028849  00000+0  23929-2 0  9999
2 37496  73.9491 169.1655 0057960 163.8155 196.4900 14.97362905671428
COSMOS 2251 DEB         
1 37498U 93036BMB 26049.35403980  .00003403  00000+0  78856-3 0  9991
2 37498  74.0333  55.8626 0008396 109.1266 251.0807 14.55439643663389
COSMOS 2251 DEB         
1 37499U 93036BMC 26060.75113417  .00000488  00000+0  18196-3 0  9993
2 37499  74.0383 177.5354 0028796 238.1829 121.6519 14.34427812862823
COSMOS 2251 DEB         
1 37528U 93036BNH 26061.42039881  .00001784  00000+0  45857-3 0  9997
2 37528  74.0387 332.3560 0018974 102.0743 258.2545 14.50835322870867
COSMOS 2251 DEB         
1 37530U 93036BNK 26060.05493377  .00000697  00000+0  25487-3 0  9991
2 37530  74.0309 190.1826 0027237 236.3663 244.4638 14.34620892863557
COSMOS 2251 DEB         
1 37532U 93036BNM 26061.31097817  .00000817  00000+0  25375-3 0  9992
2 37532  74.0488  68.2344 0014699 159.9877 212.1898 14.42560018860630
COSMOS 2251 DEB         
1 37533U 93036BNN 26054.27047308  .00002324  00000+0  11315-2 0  9993
2 37533  74.0680  63.8898 0153847 103.9650 257.8652 14.12684231639456
COSMOS 2251 DEB         
1 37535U 93036BNQ 26062.00895929  .00002918  00000+0  62352-3 0  9992
2 37535  74.0215 280.5107 0026676  35.8631  34.3959 14.59066764864953
COSMOS 2251 DEB         
1 37537U 93036BNS 26060.49808476  .00000597  00000+0  20471-3 0  9993
2 37537  74.0106 119.9614 0052558 243.1985 116.3788 14.37608831861654
COSMOS 2251 DEB         
1 37546U 93036BPB 26059.66666626  .00012731  00000+0  15413-2 0  9991
2 37546  74.0209 303.8477 0006331 283.3436  76.7036 14.83687634670421
COSMOS 2251 DEB         
1 37959U 93036BPJ 26060.03631433  .00002584  00000+0  54829-3 0  9990
2 37959  74.0072 267.6707 0056928  29.0724 130.1358 14.58679076812683
COSMOS 2251 DEB         
1 37960U 93036BPK 26061.19987849  .00003179  00000+0  14238-2 0  9995
2 37960  74.0589  47.5987 0245267  46.9471 315.1918 14.08175884785247
COSMOS 2251 DEB         
1 37961U 93036BPL 26060.13227559  .00005085  00000+0  10829-2 0  9994
2 37961  74.0441 347.9439 0037959  47.2201 313.2146 14.58781491812083
