[{"OBJECT_NAME":"COSMOS 2251 DEB","OBJECT_ID":"1993-036BLP","EPOCH":"2026-02-10T04:43:04.611360","MEAN_MOTION":14.14168757,"ECCENTRICITY":0.02305625,"INCLINATION":73.6912,"RA_OF_ASC_NODE":7.018,"ARG_OF_PERICENTER":227.0187,"MEAN_ANOMALY":148.8439,"EPHEMERIS_TYPE":0,"CLASSIFICATION_TYPE":"U","NORAD_CAT_ID":37486,"ELEMENT_SET_NO":999,"REV_AT_EPOCH":64210,"BSTAR":0.0016967221,"MEAN_MOTION_DOT":4.146e-5,"MEAN_MOTION_DDOT":0},{"OBJECT_NAME":"COSMOS 2251 DEB","OBJECT_ID":"1993-036BLQ","EPOCH":"2026-02-21T10:04:53.711040","MEAN_MOTION":14.85549634,"ECCENTRICITY":0.00308343,"INCLINATION":73.9028,"RA_OF_ASC_NODE":51.0017,"ARG_OF_PERICENTER":240.4466,"MEAN_ANOMALY":119.3638,"EPHEMERIS_TYPE":0,"CLASSIFICATION_TYPE":"U","NORAD_CAT_ID":37487,"ELEMENT_SET_NO":999,"REV_AT_EPOCH":82293,"BSTAR":0.0034217734,"MEAN_MOTION_DOT":0.0002993,"MEAN_MOTION_DDOT":0},{"OBJECT_NAME":"COSMOS 2251 DEB","OBJECT_ID":"1993-036BLU","EPOCH":"2026-03-02T20:41:07.605312","MEAN_MOTION":13.75576056,"ECCENTRICITY":0.0311412,"INCLINATION":73.906,"RA_OF_ASC_NODE":139.7523,"ARG_OF_PERICENTER":117.9251,"MEAN_ANOMALY":245.3769,"EPHEMERIS_TYPE":0,"CLASSIFICATION_TYPE":"U","NORAD_CAT_ID":37491,"ELEMENT_SET_NO":999,"REV_AT_EPOCH":56848,"BSTAR":0.00084158,"MEAN_MOTION_DOT":1.135e-5,"MEAN_MOTION_DDOT":0},{"OBJECT_NAME":"COSMOS 2251 DEB","OBJECT_ID":"1993-036BLZ","EPOCH":"2026-02-25T23:46:45.382656","MEAN_MOTION":14.97362905,"ECCENTRICITY":0.00579607,"INCLINATION":73.9491,"RA_OF_ASC_NODE":169.1655,"ARG_OF_PERICENTER":163.8155,"MEAN_ANOMALY":196.49,"EPHEMERIS_TYPE":0,"CLASSIFICATION_TYPE":"U","NORAD_CAT_ID":37496,"ELEMENT_SET_NO":999,"REV_AT_EPOCH":67142,"BSTAR":0.0023928622,"MEAN_MOTION_DOT":0.00028849,"MEAN_MOTION_DDOT":0},{"OBJECT_NAME":"COSMOS 2251 DEB","OBJECT_ID":"1993-036BMB","EPOCH":"2026-02-18T08:29:49.038720","MEAN_MOTION":14.55439643,"ECCENTRICITY":0.0008396,"INCLINATION":74.0333,"RA_OF_ASC_NODE":55.8626,"ARG_OF_PERICENTER":109.1266,"MEAN_ANOMALY":251.0807,"EPHEMERIS_TYPE":0,"CLASSIFICATION_TYPE":"U","NORAD_CAT_ID":37498,"ELEMENT_SET_NO":999,"REV_AT_EPOCH":66338,"BSTAR":0.00078856,"MEAN_MOTION_DOT":3.403e-5,"MEAN_MOTION_DDOT":0},{"OBJECT_NAME":"COSMOS 2251 DEB","OBJECT_ID":"1993-036BMC","EPOCH":"2026-03-01T18:01:37.992288","MEAN_MOTION":14.34427812,"ECCENTRICITY":0.00287966,"INCLINATION":74.0383,"RA_OF_ASC_NODE":177.5354,"ARG_OF_PERICENTER":238.1829,"MEAN_ANOMALY":121.6519,"EPHEMERIS_TYPE":0,"CLASSIFICATION_TYPE":"U","NORAD_CAT_ID":37499,"ELEMENT_SET_NO":999,"REV_AT_EPOCH":86282,"BSTAR":0.00018195676,"MEAN_MOTION_DOT":4.88e-6,"MEAN_MOTION_DDOT":0},{"OBJECT_NAME":"COSMOS 2251 DEB","OBJECT_ID":"1993-036BNH","EPOCH":"2026-03-02T10:05:22.457184","MEAN_MOTION":14.50835322,"ECCENTRICITY":0.00189741,"INCLINATION":74.0387,"RA_OF_ASC_NODE":332.356,"ARG_OF_PERICENTER":102.0743,"MEAN_ANOMALY":258.2545,"EPHEMERIS_TYPE":0,"CLASSIFICATION_TYPE":"U","NORAD_CAT_ID":37528,"ELEMENT_SET_NO":999,"REV_AT_EPOCH":87086,"BSTAR":0.0004585723,"MEAN_MOTION_DOT":1.784e-5,"MEAN_MOTION_DDOT":0},{"OBJECT_NAME":"COSMOS 2251 DEB","OBJECT_ID":"1993-036BNK","EPOCH":"2026-03-01T01:19:06.277728","MEAN_MOTION":14.34620892,"ECCENTRICITY":0.0027237,"INCLINATION":74.0309,"RA_OF_ASC_NODE":190.1826,"ARG_OF_PERICENTER":236.3663,"MEAN_ANOMALY":244.4638,"EPHEMERIS_TYPE":0,"CLASSIFICATION_TYPE":"U","NORAD_CAT_ID":37530,"ELEMENT_SET_NO":999,"REV_AT_EPOCH":86355,"BSTAR":0.00025486675,"MEAN_MOTION_DOT":6.97e-6,"MEAN_MOTION_DDOT":0},{"OBJECT_NAME":"COSMOS 2251 DEB","OBJECT_ID":"1993-036BNM","EPOCH":"2026-03-02T07:27:48.513888","MEAN_MOTION":14.42560018,"ECCENTRICITY":0.00146993,"INCLINATION":74.0488,"RA_OF_ASC_NODE":68.2344,"ARG_OF_PERICENTER":159.9877,"MEAN_ANOMALY":212.1898,"EPHEMERIS_TYPE":0,"CLASSIFICATION_TYPE":"U","NORAD_CAT_ID":37532,"ELEMENT_SET_NO":999,"REV_AT_EPOCH":86063,"BSTAR":0.00025374803,"MEAN_MOTION_DOT":8.17e-6,"MEAN_MOTION_DDOT":0},{"OBJECT_NAME":"COSMOS 2251 DEB","OBJECT_ID":"1993-036BNN","EPOCH":"2026-02-23T06:29:28.874112","MEAN_MOTION":14.12684231,"ECCENTRICITY":0.0153847,"INCLINATION":74.068,"RA_OF_ASC_NODE":63.8898,"ARG_OF_PERICENTER":103.965,"MEAN_ANOMALY":257.8652,"EPHEMERIS_TYPE":0,"CLASSIFICATION_TYPE":"U","NORAD_CAT_ID":37533,"ELEMENT_SET_NO":999,"REV_AT_EPOCH":63945,"BSTAR":0.0011315,"MEAN_MOTION_DOT":2.324e-5,"MEAN_MOTION_DDOT":0},{"OBJECT_NAME":"COSMOS 2251 DEB","OBJECT_ID":"1993-036BNQ","EPOCH":"2026-03-03T00:12:54.082656","MEAN_MOTION":14.59066764,"ECCENTRICITY":0.0026676,"INCLINATION":74.0215,"RA_OF_ASC_NODE":280.5107,"ARG_OF_PERICENTER":35.8631,"MEAN_ANOMALY":34.3959,"EPHEMERIS_TYPE":0,"CLASSIFICATION_TYPE":"U","NORAD_CAT_ID":37535,"ELEMENT_SET_NO":999,"REV_AT_EPOCH":86495,"BSTAR":0.00062352,"MEAN_MOTION_DOT":2.918e-5,"MEAN_MOTION_DDOT":0},{"OBJECT_NAME":"COSMOS 2251 DEB","OBJECT_ID":"1993-036BNS","EPOCH":"2026-03-01T11:57:14.523264","MEAN_MOTION":14.37608831,"ECCENTRICITY":0.00525586,"INCLINATION":74.0106,"RA_OF_ASC_NODE":119.9614,"ARG_OF_PERICENTER":243.1985,"MEAN_ANOMALY":116.3788,"EPHEMERIS_TYPE":0,"CLASSIFICATION_TYPE":"U","NORAD_CAT_ID":37537,"ELEMENT_SET_NO":999,"REV_AT_EPOCH":86165,"BSTAR":0.00020471453,"MEAN_MOTION_DOT":5.97e-6,"MEAN_MOTION_DDOT":0},{"OBJECT_NAME":"COSMOS 2251 DEB","OBJECT_ID":"1993-036BPB","EPOCH":"2026-02-28T15:59:59.964864","MEAN_MOTION":14.83687634,"ECCENTRICITY":0.00063311,"INCLINATION":74.0209,"RA_OF_ASC_NODE":303.8477,"ARG_OF_PERICENTER":283.3436,"MEAN_ANOMALY":76.7036,"EPHEMERIS_TYPE":0,"CLASSIFICATION_TYPE":"U","NORAD_CAT_ID":37546,"ELEMENT_SET_NO":999,"REV_AT_EPOCH":67042,"BSTAR":0.0015412661,"MEAN_MOTION_DOT":0.00012731,"MEAN_MOTION_DDOT":0},{"OBJECT_NAME":"COSMOS 2251 DEB","OBJECT_ID":"1993-036BPJ","EPOCH":"2026-03-01T00:52:17.558112","MEAN_MOTION":14.58679076,"ECCENTRICITY":0.0056928,"INCLINATION":74.0072,"RA_OF_ASC_NODE":267.6707,"ARG_OF_PERICENTER":29.0724,"MEAN_ANOMALY":130.1358,"EPHEMERIS_TYPE":0,"CLASSIFICATION_TYPE":"U","NORAD_CAT_ID":37959,"ELEMENT_SET_NO":999,"REV_AT_EPOCH":81268,"BSTAR":0.00054829049,"MEAN_MOTION_DOT":2.584e-5,"MEAN_MOTION_DDOT":0},{"OBJECT_NAME":"COSMOS 2251 DEB","OBJECT_ID":"1993-036BPK","EPOCH":"2026-03-02T04:47:49.501536","MEAN_MOTION":14.08175884,"ECCENTRICITY":0.0245267,"INCLINATION":74.0589,"RA_OF_ASC_NODE":47.5987,"ARG_OF_PERICENTER":46.9471,"MEAN_ANOMALY":315.1918,"EPHEMERIS_TYPE":0,"CLASSIFICATION_TYPE":"U","NORAD_CAT_ID":37960,"ELEMENT_SET_NO":999,"REV_AT_EPOCH":78524,"BSTAR":0.0014238321,"MEAN_MOTION_DOT":3.179e-5,"MEAN_MOTION_DDOT":0},{"OBJECT_NAME":"COSMOS 2251 DEB","OBJECT_ID":"1993-036BPL","EPOCH":"2026-03-01T03:10:28.610976","MEAN_MOTION":14.58781491,"ECCENTRICITY":0.0037959,"INCLINATION":74.0441,"RA_OF_ASC_NODE":347.9439,"ARG_OF_PERICENTER":47.2201,"MEAN_ANOMALY":313.2146,"EPHEMERIS_TYPE":0,"CLASSIFICATION_TYPE":"U","NORAD_CAT_ID":37961,"ELEMENT_SET_NO":999,"REV_AT_EPOCH":81208,"BSTAR":0.0010829289,"MEAN_MOTION_DOT":5.085e-5,"MEAN_MOTION_DDOT":0}]
